{"spkid": "20141432", "covariance": {"elements": [{"label": "e", "sigma": 6.3438140386199e-08, "name": "e", "value": ".4283661985469239", "title": "eccentricity", "units": null}, {"value": ".5595055480243177", "title": "perihelion distance", "units": "au", "sigma": 6.40067999161669e-08, "name": "q", "label": "q"}, {"label": "tp", "units": "TDB", "title": "time of perihelion passage", "value": "2454356.837478878845", "name": "tp", "sigma": 6.20798065686958e-06}, {"name": "om", "sigma": 4.21261280353552e-05, "units": "deg", "title": "longitude of the ascending node", "value": "81.43973900830659", "label": "node"}, {"label": "peri", "sigma": 4.21770026733653e-05, "name": "w", "value": "272.7358920867321", "title": "argument of perihelion", "units": "deg"}, {"label": "i", "name": "i", "sigma": 2.35198237526359e-06, "units": "deg", "value": "2.459728827816653", "title": "inclination"}], "data": [["4.024397655659088E-15", "-4.060356290041768E-15", "-3.595537773863443E-13", "-4.86719339585173E-13", "2.41774562047117E-13", "1.25569863063069E-14"], ["-4.060356290041768E-15", "4.096870435508223E-15", "3.63960450608203E-13", "4.861059693881829E-13", "-2.38767602341425E-13", "-1.24099110918741E-14"], ["-3.595537773863443E-13", "3.63960450608203E-13", "3.853902383606682E-11", "2.889514289803331E-11", "-5.829672213180275E-12", "4.137242559020936E-13"], ["-4.86719339585173E-13", "4.861059693881829E-13", "2.889514289803331E-11", "1.774610663251141E-9", "-1.768777417922475E-9", "6.204799732768713E-12"], ["2.41774562047117E-13", "-2.38767602341425E-13", "-5.829672213180275E-12", "-1.768777417922475E-9", "1.778899554509063E-9", "-5.431687384703717E-12"], ["1.25569863063069E-14", "-1.24099110918741E-14", "4.137242559020936E-13", "6.204799732768713E-12", "-5.431687384703717E-12", "5.531821093550553E-12"]], "labels": ["e", "q", "tp", "node", "peri", "i"], "epoch": "2454487.5"}, "elements": [{"title": "eccentricity", "value": ".427510478351699", "units": null, "sigma": "8.2395E-8", "name": "e", "label": "e"}, {"title": "semi-major axis", "value": ".9760374388300425", "units": "au", "name": "a", "sigma": "6.204E-8", "label": "a"}, {"sigma": "4.5328E-8", "name": "q", "value": ".5587712064666439", "title": "perihelion distance", "units": "au", "label": "q"}, {"label": "i", "name": "i", "sigma": "2.3883E-6", "units": "deg", "title": "inclination; angle with respect to x-y ecliptic plane", "value": "2.467242783413797"}, {"value": "81.33640935057268", "title": "longitude of the ascending node", "units": "deg", "name": "om", "sigma": "4.1404E-5", "label": "node"}, {"sigma": "4.232E-5", "name": "w", "units": "deg", "title": "argument of perihelion", "value": "272.6517684794608", "label": "peri"}, {"name": "ma", "sigma": ".00018738", "title": "mean anomaly", "value": "134.8460464579798", "units": "deg", "label": "M"}, {"label": "tp", "name": "tp", "sigma": ".00017074", "units": "TDB", "value": "2461068.572947677801", "title": "time of perihelion passage"}, {"label": "period", "sigma": "3.3581E-5", "name": "per", "title": "sidereal orbital period", "value": "352.2071286738931", "units": "d"}, {"label": "n", "sigma": "9.7455E-8", "name": "n", "value": "1.022125819416115", "title": "mean motion", "units": "deg/d"}, {"units": "au", "title": "aphelion distance", "value": "1.393303671193441", "name": "ad", "sigma": "8.8563E-8", "label": "Q"}], "epoch": "2461200.5"}